{"type": "FeatureCollection", "features": [ {"type": "Feature", "properties": {"norad_id": 40664, "name": "SKY MEXICO-1", "group": "intelsat", "lat": -0.04168074221956311, "lon": -96.28647330457025, "alt_km": 35776.98581643028, "timestamp": "2025-12-21T16:47:54.396832+00:00", "meta": {"OBJECT_NAME": "SKY MEXICO-1", "OBJECT_ID": "2015-026B", "EPOCH": "2025-12-21T11:12:10.593792", "MEAN_MOTION": 1.00271533, "ECCENTRICITY": 0.000236, "INCLINATION": 0.0152, "RA_OF_ASC_NODE": 354.0207, "ARG_OF_PERICENTER": 292.9365, "MEAN_ANOMALY": 252.6132, "EPHEMERIS_TYPE": 0, "CLASSIFICATION_TYPE": "U", "NORAD_CAT_ID": 40664, "ELEMENT_SET_NO": 999, "REV_AT_EPOCH": 3867, "BSTAR": 0, "MEAN_MOTION_DOT": -2.12e-06, "MEAN_MOTION_DDOT": 0}, "tle": {"line1": "1 40664U 15026B   25355.46678928 -.00000212  00000+0  00000+0 0  9998", "line2": "2 40664   0.0152 354.0207 0002360 292.9365 252.6132  1.00271533 38675"}}, "geometry": {"type": "Point", "coordinates": [-96.28647330457025, -0.04168074221956311]}}, {"type": "Feature", "properties": {"norad_id": 40874, "name": "INTELSAT 34 (IS-34)", "group": "intelsat", "lat": -0.025467566418816673, "lon": -73.01170300133425, "alt_km": 35788.22629261085, "timestamp": "2025-12-21T16:47:54.396846+00:00", "meta": {"OBJECT_NAME": "INTELSAT 34 (IS-34)", "OBJECT_ID": "2015-039A", "EPOCH": "2025-12-21T04:31:38.456256", "MEAN_MOTION": 1.00270737, "ECCENTRICITY": 5.67e-05, "INCLINATION": 0.0114, "RA_OF_ASC_NODE": 322.9713, "ARG_OF_PERICENTER": 185.716, "MEAN_ANOMALY": 313.7366, "EPHEMERIS_TYPE": 0, "CLASSIFICATION_TYPE": "U", "NORAD_CAT_ID": 40874, "ELEMENT_SET_NO": 999, "REV_AT_EPOCH": 3784, "BSTAR": 0, "MEAN_MOTION_DOT": -2.62e-06, "MEAN_MOTION_DDOT": 0}, "tle": {"line1": "1 40874U 15039A   25355.18863954 -.00000262  00000+0  00000+0 0  9994", "line2": "2 40874   0.0114 322.9713 0000567 185.7160 313.7366  1.00270737 37842"}}, "geometry": {"type": "Point", "coordinates": [-73.01170300133425, -0.025467566418816673]}}, {"type": "Feature", "properties": {"norad_id": 41581, "name": "INTELSAT 31 (IS-31)", "group": "intelsat", "lat": -0.0228801386089103, "lon": -112.54831986187237, "alt_km": 35780.11583687268, "timestamp": "2025-12-21T16:47:54.396859+00:00", "meta": {"OBJECT_NAME": "INTELSAT 31 (IS-31)", "OBJECT_ID": "2016-035A", "EPOCH": "2025-12-20T14:29:23.871264", "MEAN_MOTION": 1.00271704, "ECCENTRICITY": 0.00019976, "INCLINATION": 0.0288, "RA_OF_ASC_NODE": 267.9464, "ARG_OF_PERICENTER": 295.2319, "MEAN_ANOMALY": 8.5584, "EPHEMERIS_TYPE": 0, "CLASSIFICATION_TYPE": "U", "NORAD_CAT_ID": 41581, "ELEMENT_SET_NO": 999, "REV_AT_EPOCH": 3489, "BSTAR": 0, "MEAN_MOTION_DOT": -1.27e-06, "MEAN_MOTION_DDOT": 0}, "tle": {"line1": "1 41581U 16035A   25354.60374851 -.00000127  00000+0  00000+0 0  9996", "line2": "2 41581   0.0288 267.9464 0001997 295.2319   8.5584  1.00271704 34890"}}, "geometry": {"type": "Point", "coordinates": [-112.54831986187237, -0.0228801386089103]}}, {"type": "Feature", "properties": {"norad_id": 41747, "name": "INTELSAT 36 (IS-36)", "group": "intelsat", "lat": 0.029018124980785306, "lon": 50.99530542764657, "alt_km": 35785.03039085489, "timestamp": "2025-12-21T16:47:54.396871+00:00", "meta": {"OBJECT_NAME": "INTELSAT 36 (IS-36)", "OBJECT_ID": "2016-053A", "EPOCH": "2025-12-21T04:57:48.972384", "MEAN_MOTION": 1.00273317, "ECCENTRICITY": 0.0001215, "INCLINATION": 0.0105, "RA_OF_ASC_NODE": 358.7052, "ARG_OF_PERICENTER": 329.3234, "MEAN_ANOMALY": 264.9497, "EPHEMERIS_TYPE": 0, "CLASSIFICATION_TYPE": "U", "NORAD_CAT_ID": 41747, "ELEMENT_SET_NO": 999, "REV_AT_EPOCH": 3416, "BSTAR": 0, "MEAN_MOTION_DOT": -2e-08, "MEAN_MOTION_DDOT": 0}, "tle": {"line1": "1 41747U 16053A   25355.20681681 -.00000002  00000+0  00000+0 0  9991", "line2": "2 41747   0.0105 358.7052 0001215 329.3234 264.9497  1.00273317 34165"}}, "geometry": {"type": "Point", "coordinates": [50.99530542764657, 0.029018124980785306]}}, {"type": "Feature", "properties": {"norad_id": 41945, "name": "INTELSAT 32E (IS-32E)", "group": "intelsat", "lat": -0.037379768991790976, "lon": -60.71057792693548, "alt_km": 35787.198761106934, "timestamp": "2025-12-21T16:47:54.396883+00:00", "meta": {"OBJECT_NAME": "INTELSAT 32E (IS-32E)", "OBJECT_ID": "2017-007B", "EPOCH": "2025-12-21T08:28:38.563104", "MEAN_MOTION": 1.00267685, "ECCENTRICITY": 7.96e-05, "INCLINATION": 0.0278, "RA_OF_ASC_NODE": 70.3074, "ARG_OF_PERICENTER": 317.4297, "MEAN_ANOMALY": 146.417, "EPHEMERIS_TYPE": 0, "CLASSIFICATION_TYPE": "U", "NORAD_CAT_ID": 41945, "ELEMENT_SET_NO": 999, "REV_AT_EPOCH": 3244, "BSTAR": 0, "MEAN_MOTION_DOT": -2.46e-06, "MEAN_MOTION_DDOT": 0}, "tle": {"line1": "1 41945U 17007B   25355.35322411 -.00000246  00000+0  00000+0 0  9990", "line2": "2 41945   0.0278  70.3074 0000796 317.4297 146.4170  1.00267685 32449"}}, "geometry": {"type": "Point", "coordinates": [-60.71057792693548, -0.037379768991790976]}}, {"type": "Feature", "properties": {"norad_id": 42818, "name": "INTELSAT 35E (IS-35E)", "group": "intelsat", "lat": -0.039229216991878944, "lon": -51.994528158766, "alt_km": 35779.98161668455, "timestamp": "2025-12-21T16:47:54.396894+00:00", "meta": {"OBJECT_NAME": "INTELSAT 35E (IS-35E)", "OBJECT_ID": "2017-041A", "EPOCH": "2025-12-21T02:45:46.617696", "MEAN_MOTION": 1.00270832, "ECCENTRICITY": 0.0001858, "INCLINATION": 0.017, "RA_OF_ASC_NODE": 28.2756, "ARG_OF_PERICENTER": 244.397, "MEAN_ANOMALY": 184.2219, "EPHEMERIS_TYPE": 0, "CLASSIFICATION_TYPE": "U", "NORAD_CAT_ID": 42818, "ELEMENT_SET_NO": 999, "REV_AT_EPOCH": 3103, "BSTAR": 0, "MEAN_MOTION_DOT": -2.15e-06, "MEAN_MOTION_DDOT": 0}, "tle": {"line1": "1 42818U 17041A   25355.11512289 -.00000215  00000+0  00000+0 0  9992", "line2": "2 42818   0.0170  28.2756 0001858 244.3970 184.2219  1.00270832 31031"}}, "geometry": {"type": "Point", "coordinates": [-51.994528158766, -0.039229216991878944]}}, {"type": "Feature", "properties": {"norad_id": 42950, "name": "INTELSAT 37E (IS-37E)", "group": "intelsat", "lat": -0.03375033674788424, "lon": -35.48485705958922, "alt_km": 35780.19354041538, "timestamp": "2025-12-21T16:47:54.396906+00:00", "meta": {"OBJECT_NAME": "INTELSAT 37E (IS-37E)", "OBJECT_ID": "2017-059A", "EPOCH": "2025-12-21T07:58:36.876000", "MEAN_MOTION": 1.00273331, "ECCENTRICITY": 0.0002842, "INCLINATION": 0.0189, "RA_OF_ASC_NODE": 20.7753, "ARG_OF_PERICENTER": 240.6513, "MEAN_ANOMALY": 290.3802, "EPHEMERIS_TYPE": 0, "CLASSIFICATION_TYPE": "U", "NORAD_CAT_ID": 42950, "ELEMENT_SET_NO": 999, "REV_AT_EPOCH": 3028, "BSTAR": 0, "MEAN_MOTION_DOT": -1.18e-06, "MEAN_MOTION_DDOT": 0}, "tle": {"line1": "1 42950U 17059A   25355.33237125 -.00000118  00000+0  00000+0 0  9997", "line2": "2 42950   0.0189  20.7753 0002842 240.6513 290.3802  1.00273331 30288"}}, "geometry": {"type": "Point", "coordinates": [-35.48485705958922, -0.03375033674788424]}}, {"type": "Feature", "properties": {"norad_id": 43632, "name": "AZERSPACE 2 (IS-38)", "group": "intelsat", "lat": 0.027045959805142118, "lon": 27.61109251568318, "alt_km": 35789.106013417084, "timestamp": "2025-12-21T16:47:54.396917+00:00", "meta": {"OBJECT_NAME": "AZERSPACE 2 (IS-38)", "OBJECT_ID": "2018-074A", "EPOCH": "2025-12-21T11:42:03.851712", "MEAN_MOTION": 1.00269923, "ECCENTRICITY": 0.0001145, "INCLINATION": 0.0185, "RA_OF_ASC_NODE": 341.5133, "ARG_OF_PERICENTER": 284.6301, "MEAN_ANOMALY": 44.7962, "EPHEMERIS_TYPE": 0, "CLASSIFICATION_TYPE": "U", "NORAD_CAT_ID": 43632, "ELEMENT_SET_NO": 999, "REV_AT_EPOCH": 2666, "BSTAR": 0, "MEAN_MOTION_DOT": 1.59e-06, "MEAN_MOTION_DDOT": 0}, "tle": {"line1": "1 43632U 18074A   25355.48754458  .00000159  00000+0  00000+0 0  9996", "line2": "2 43632   0.0185 341.5133 0001145 284.6301  44.7962  1.00269923 26663"}}, "geometry": {"type": "Point", "coordinates": [27.61109251568318, 0.027045959805142118]}}, {"type": "Feature", "properties": {"norad_id": 43633, "name": "HORIZONS-3E", "group": "intelsat", "lat": -0.007329243749388687, "lon": 151.45806012215516, "alt_km": 35788.83758282597, "timestamp": "2025-12-21T16:47:54.396929+00:00", "meta": {"OBJECT_NAME": "HORIZONS-3E", "OBJECT_ID": "2018-074B", "EPOCH": "2025-12-20T20:52:53.061312", "MEAN_MOTION": 1.00270825, "ECCENTRICITY": 6.664e-05, "INCLINATION": 0.0092, "RA_OF_ASC_NODE": 228.8409, "ARG_OF_PERICENTER": 76.0136, "MEAN_ANOMALY": 267.0442, "EPHEMERIS_TYPE": 0, "CLASSIFICATION_TYPE": "U", "NORAD_CAT_ID": 43633, "ELEMENT_SET_NO": 999, "REV_AT_EPOCH": 2655, "BSTAR": 0, "MEAN_MOTION_DOT": 0, "MEAN_MOTION_DDOT": 0}, "tle": {"line1": "1 43633U 18074B   25354.87005858  .00000000  00000+0  00000+0 0  9997", "line2": "2 43633   0.0092 228.8409 0000666  76.0136 267.0442  1.00270825 26554"}}, "geometry": {"type": "Point", "coordinates": [151.45806012215516, -0.007329243749388687]}}, {"type": "Feature", "properties": {"norad_id": 44333, "name": "AT&T T-16", "group": "intelsat", "lat": -0.0164437895512911, "lon": -118.38718128727497, "alt_km": 35788.516916653716, "timestamp": "2025-12-21T16:47:54.396941+00:00", "meta": {"OBJECT_NAME": "AT&T T-16", "OBJECT_ID": "2019-034A", "EPOCH": "2025-12-20T14:27:46.526976", "MEAN_MOTION": 1.00263761, "ECCENTRICITY": 0.0001552, "INCLINATION": 0.019, "RA_OF_ASC_NODE": 58.344, "ARG_OF_PERICENTER": 92.0528, "MEAN_ANOMALY": 55.1236, "EPHEMERIS_TYPE": 0, "CLASSIFICATION_TYPE": "U", "NORAD_CAT_ID": 44333, "ELEMENT_SET_NO": 999, "REV_AT_EPOCH": 2384, "BSTAR": 0, "MEAN_MOTION_DOT": -9.1e-07, "MEAN_MOTION_DDOT": 0}, "tle": {"line1": "1 44333U 19034A   25354.60262184 -.00000091  00000+0  00000+0 0  9991", "line2": "2 44333   0.0190  58.3440 0001552  92.0528  55.1236  1.00263761 23847"}}, "geometry": {"type": "Point", "coordinates": [-118.38718128727497, -0.0164437895512911]}}]}